STARLINK-36266          
1 67984C 26038Z   26109.28937500  .00018000  00000+0  55927-3 0  1097
2 67984  97.2849 119.9016 0001666  99.9938 355.5310 15.33400429    12
STARLINK-36802          
1 67985C 26038AA  26109.26506944 -.00077643  00000+0 -23473-2 0  1090
2 67985  97.2846 120.6540 0001828 105.2819 251.3781 15.34317619    14
STARLINK-36535          
1 67986C 26039A   26109.24770833  .00013824  00000+0  50122-3 0  1091
2 67986  43.0007 180.2704 0001500 248.7948  44.5194 15.27537110    12
STARLINK-36744          
1 67987C 26039B   26109.28243056 -.00027622  00000+0 -99962-3 0  1096
2 67987  43.0026 180.0201 0001569 264.8815 240.8722 15.27619573    13
STARLINK-36734          
1 67988C 26039C   26109.26368056  .00004773  00000+0  16869-3 0  1098
2 67988  43.0015 180.1959 0001797 258.0625 126.8956 15.28379611    19
STARLINK-36957          
1 67989C 26039D   26109.26993056 -.00018657  00000+0 -67533-3 0  1095
2 67989  43.0028 179.9885 0001509 265.3280 214.0611 15.27608634    14
STARLINK-36951          
1 67990C 26039E   26109.29284722 -.00013907  00000+0 -50335-3 0  1098
2 67990  43.0018 179.8124 0001222 260.1858   6.5965 15.27608840    11
STARLINK-36941          
1 67991C 26039F   26109.20881944  .00020208  00000+0  73144-3 0  1092
2 67991  43.0006 180.2700 0001328 258.5848 279.6911 15.27590211    18
STARLINK-36950          
1 67992C 26039G   26109.25673611  .00003001  00000+0  10858-3 0  1093
2 67992  42.9998 179.9383 0001407 260.7694 202.5203 15.27612374    15
STARLINK-36975          
1 67993C 26039H   26109.26854167 -.00012600  00000+0 -45606-3 0  1098
2 67993  43.0004 179.8174 0001695 272.2271 277.2273 15.27605522    14
STARLINK-36993          
1 67994C 26039J   26109.24076389  .00011037  00000+0  39926-3 0  1098
2 67994  43.0007 179.9050 0001266 268.1716 149.6571 15.27613638    14
STARLINK-36968          
1 67995C 26039K   26109.27201389 -.00001240  00000+0 -43789-4 0  1092
2 67995  42.9999 179.5390 0001313 267.0972  51.5237 15.28410793    19
STARLINK-36979          
1 67996C 26039L   26109.23729167  .00012595  00000+0  45586-3 0  1097
2 67996  43.0007 179.8704 0001431 260.8093 159.1608 15.27594854    17
STARLINK-36994          
1 67997C 26039M   26109.18590278  .00033374  00000+0  12081-2 0  1092
2 67997  42.9998 179.8823 0001796 260.5087 356.7653 15.27580560    15
STARLINK-36988          
1 67998C 26039N   26109.24423611  .00008988  00000+0  32536-3 0  1097
2 67998  42.9996 179.6036 0001715 263.8051 293.4314 15.27590544    10
STARLINK-36926          
1 67999C 26039P   26109.21437500  .00022575  00000+0  81703-3 0  1095
2 67999  43.0001 179.6708 0001512 265.3107 169.9543 15.27592452    11
STARLINK-36931          
1 68000C 26039Q   26109.24840278  .00009626  00000+0  34865-3 0  1091
2 68000  43.0008 179.4387 0001829 267.5342   9.2750 15.27572359    19
STARLINK-36903          
1 68001C 26039R   26109.20951389  .00025882  00000+0  93690-3 0  1097
2 68001  43.0019 180.5016 0001746 264.4538 171.5441 15.27583664    16
STARLINK-36898          
1 68002C 26039S   26109.28173611 -.00018939  00000+0 -68609-3 0  1099
2 68002  43.0031 179.9860 0001718 260.7448 255.4021 15.27582201    10
STARLINK-36862          
1 68003C 26039T   26109.22479167  .00016998  00000+0  59969-3 0  1099
2 68003  43.0021 180.3525 0001728 277.7799 266.9629 15.28429498    12
STARLINK-36888          
1 68004C 26039U   26109.19909722 -.00152950  00000+0 -53987-2 0  1095
2 68004  43.0019 180.5114 0001751 271.7617 126.4881 15.28496990    16
STARLINK-36910          
1 68005C 26039V   26109.25534722  .00003786  00000+0  13702-3 0  1099
2 68005  43.0026 180.0802 0001593 268.1930 123.8379 15.27597567    10
STARLINK-36889          
1 68006C 26039W   26109.28520833 -.00037250  00000+0 -13484-2 0  1092
2 68006  43.0004 179.7790 0001694 263.0233 350.0092 15.27616026    18
STARLINK-36592          
1 68007C 26039X   26109.20187500  .00022430  00000+0  81204-3 0  1093
2 68007  43.0000 180.1898 0001308 267.0066 268.4390 15.27582147    19
STARLINK-36911          
1 68008C 26039Y   26109.28104167 -.00003687  00000+0 -13352-3 0  1094
2 68008  43.0007 179.6919 0001378 258.1003  14.4021 15.27588253    17
STARLINK-36956          
1 68009C 26039Z   26109.21020833  .00024313  00000+0  88004-3 0  1098
2 68009  43.0006 180.0416 0001392 260.6413   3.1410 15.27587127    10
STARLINK-36953          
1 68010C 26039AA  26109.21437500  .00025362  00000+0  91752-3 0  1092
2 68010  43.0005 179.8702 0001281 276.0036  67.2304 15.27604456    12
STARLINK-36991          
1 68011C 26039AB  26109.24493056  .00007862  00000+0  27774-3 0  1092
2 68011  42.9999 179.6871 0001447 276.9151 251.3138 15.28391689    12
STARLINK-36936          
1 68012C 26039AC  26109.21784722  .00021717  00000+0  78622-3 0  1096
2 68012  42.9999 179.7099 0001521 269.4239 156.6709 15.27582615    14
STARLINK-36967          
1 68013C 26039AD  26109.20187500  .00025714  00000+0  93079-3 0  1091
2 68013  43.0002 180.0521 0001414 261.7992 337.3126 15.27585825    16
STARLINK-36985          
1 68014C 26039AE  26109.26090278 -.00010131  00000+0 -36661-3 0  1096
2 68014  42.9999 179.5052 0001341 261.7933  20.1431 15.27612348    13
STARLINK-36335          
1 68015C 26040A   26109.20187500  .00096894  00000+0  30106-2 0  1093
2 68015  97.2871  58.6543 0001798  90.4316  42.1261 15.33360328    16
STARLINK-36923          
1 68016C 26040B   26109.20673611  .00153160  00000+0  46314-2 0  1095
2 68016  97.2870  58.6585 0001915  97.3172  61.1700 15.34194056    12
STARLINK-36568          
1 68017C 26040C   26109.23312500  .00102020  00000+0  31690-2 0  1096
2 68017  97.2870  58.7043 0001717  91.3127 258.6387 15.33365012    12
STARLINK-36930          
1 68018C 26040D   26109.24284722  .00103040  00000+0  32021-2 0  1094
2 68018  97.2870  58.7011 0001834  87.6981 285.8959 15.33352567    12
STARLINK-36921          
1 68019C 26040E   26109.24562500  .00105900  00000+0  32896-2 0  1095
2 68019  97.2869  58.7295 0001675  91.3752 357.5373 15.33364900    17
STARLINK-36928          
1 68020C 26040F   26109.25187500  .00104540  00000+0  32477-2 0  1095
2 68020  97.2869  58.7293 0001651  90.0997  18.2953 15.33361838    10
STARLINK-36858          
1 68021C 26040G   26109.20881944  .00099172  00000+0  30807-2 0  1093
2 68021  97.2869  58.7134 0001620  89.4703 201.4002 15.33365642    16
STARLINK-36916          
1 68022C 26040H   26109.23937500  .00107410  00000+0  32493-2 0  1095
2 68022  97.2867  58.7249 0001679  89.3390 333.3637 15.34202637    11
STARLINK-36871          
1 68023C 26040J   26109.21854167  .00100700  00000+0  31286-2 0  1095
2 68023  97.2870  58.7154 0001753  91.4470 238.0572 15.33361824    19
STARLINK-36891          
1 68024C 26040K   26109.20534722  .00096328  00000+0  29144-2 0  1097
2 68024  97.2870  58.7108 0001958  86.7698 190.0222 15.34205238    11
STARLINK-36378          
1 68025C 26040L   26109.27895833  .00092081  00000+0  27858-2 0  1090
2 68025  97.2870  58.7784 0001749 107.6915 202.9753 15.34208148    10
STARLINK-36884          
1 68026C 26040M   26109.26229167  .00097859  00000+0  30392-2 0  1096
2 68026  97.2873  58.7774 0001653  88.9570 166.8942 15.33374680    17
STARLINK-36940          
1 68027C 26040N   26109.25881944  .00103360  00000+0  32112-2 0  1090
2 68027  97.2870  58.8590 0001922 108.9195 322.7824 15.33360833    14
STARLINK-36253          
1 68028C 26040P   26109.19562500  .00098740  00000+0  30683-2 0  1094
2 68028  97.2874  57.7346 0001933 108.2974 357.9412 15.33355589    11
STARLINK-36944          
1 68029C 26040Q   26109.20395833  .00059818  00000+0  18570-2 0  1094
2 68029  97.2872  58.7323 0001860  94.2889 229.7250 15.33407033    12
STARLINK-36942          
1 68030C 26040R   26109.28451389  .00089142  00000+0  26967-2 0  1095
2 68030  97.2873  58.8092 0001758  90.7725 311.3907 15.34212443    12
STARLINK-36913          
1 68031C 26040S   26109.21229167  .00105420  00000+0  31887-2 0  1091
2 68031  97.2864  58.7355 0001326  99.8929 261.7335 15.34209946    18
STARLINK-36935          
1 68032C 26040T   26109.20326389  .00100090  00000+0  31102-2 0  1093
2 68032  97.2872  58.7969 0001926 106.9521   3.2720 15.33355227    13
STARLINK-36947          
1 68033C 26040U   26109.23659722  .00106700  00000+0  33153-2 0  1099
2 68033  97.2871  58.7843 0001729  88.2421 100.8756 15.33355052    15
STARLINK-36939          
1 68034C 26040V   26109.23243056  .00110460  00000+0  33433-2 0  1098
2 68034  97.2869  58.7685 0001510 112.3976  30.0672 15.34185987    19
STARLINK-36943          
1 68035C 26040W   26109.20743056  .00102020  00000+0  31706-2 0  1095
2 68035  97.2870  58.7957 0001249  90.1690  28.0425 15.33349952    15
STARLINK-36906          
1 68036C 26040X   26109.28381944  .00092047  00000+0  27850-2 0  1090
2 68036  97.2860  58.8415 0001627  96.7828  23.1970 15.34206889    13
STARLINK-36388          
1 68037C 26040Y   26109.25604167  .00102180  00000+0  30914-2 0  1098
2 68037  97.2869  58.8175 0001884 106.6223 222.4618 15.34203215    14
STARLINK-36895          
1 68038C 26040Z   26109.20048611  .00102140  00000+0  31739-2 0  1092
2 68038  97.2868  58.7617 0001936 107.6116 272.2859 15.33352799    15
STARLINK-36373          
1 68039C 26040AA  26109.25187500  .00056408  00000+0  17496-2 0  1098
2 68039  97.2860  58.8033 0002287  89.4668 198.8387 15.33435239    10
STARLINK-36711          
1 68040C 26041A   26109.27201389  .00069266  00000+0  15326-2 0  1091
2 68040  53.1602 221.6657 0000790  92.5334  53.0090 15.43192844    17
STARLINK-36825          
1 68041C 26041B   26109.23798611 -.00001672  00000+0 -42774-4 0  1095
2 68041  53.1600 221.2440 0001127  42.2316 197.6985 15.38850005    11
STARLINK-36925          
1 68042C 26041C   26109.22687500 -.02065900  00000+0 -43429-1 0  1090
2 68042  53.1605 221.8184 0001181  82.6932 202.2613 15.45774540    18
